OBJECT_NAME,OBJECT_ID,EPOCH,MEAN_MOTION,ECCENTRICITY,INCLINATION,RA_OF_ASC_NODE,ARG_OF_PERICENTER,MEAN_ANOMALY,EPHEMERIS_TYPE,CLASSIFICATION_TYPE,NORAD_CAT_ID,ELEMENT_SET_NO,REV_AT_EPOCH,BSTAR,MEAN_MOTION_DOT,MEAN_MOTION_DDOT
SL-8 R/B,1985-006B,2026-06-11T12:59:51.866592,14.37832583,.00186778,74.0459,88.4528,336.5824,201.2054,0,U,15483,999,16751,.69594974E-4,.184E-5,0
SL-12 R/B(2),1985-042D,2026-06-11T14:41:58.470720,14.22004899,.0035993,71.1082,249.2940,336.2322,123.4810,0,U,15772,999,12774,.5497973E-5,-.36E-6,0
SL-14 R/B,1985-069B,2026-06-11T15:35:17.421216,14.86511387,.00174468,82.5267,296.5742,238.7045,121.2464,0,U,15945,999,18679,.43705081E-4,.412E-5,0
SL-16 R/B,1985-097B,2026-06-11T14:56:24.744768,14.16611674,.00054855,71.0037,302.7934,122.9969,317.9493,0,U,16182,999,10053,-.87436529E-4,-.222E-5,0
SL-14 R/B,1986-006B,2026-06-11T12:48:13.803840,14.86939992,.00753516,82.5261,171.4338,322.5279,37.0697,0,U,16496,999,16315,.52883548E-4,.523E-5,0
COSMOS 1743,1986-034A,2026-06-11T12:37:37.330464,15.66440250,.00037238,82.5272,334.7502,297.9472,62.1411,0,U,16719,999,19490,.43328734E-3,.45185E-3,0
SL-14 R/B,1986-046B,2026-06-11T15:07:18.467904,14.85667365,.00215876,82.4816,351.4272,278.1802,81.6965,0,U,16792,999,14035,.36386068E-4,.34E-5,0
SL-14 R/B,1986-055B,2026-06-11T14:56:27.777408,14.85719418,.00195571,82.5208,38.3649,25.7424,35.4418,0,U,16882,999,13331,.38378013E-4,.358E-5,0
AJISAI (EGS),1986-061A,2026-06-11T14:31:34.343040,12.44516804,.00112458,50.0062,164.5596,166.4205,312.1593,0,U,16908,999,47969,.14757268E-3,-.76E-6,0
SL-14 R/B,1987-024B,2026-06-11T15:06:17.400384,14.86209584,.00170833,82.5281,4.4750,313.1100,46.8687,0,U,17567,999,10208,.36783052E-4,.348E-5,0
COSMOS 1833,1987-027A,2026-06-11T08:59:01.235904,14.13045610,.00226587,70.9166,129.0867,64.7689,295.5777,0,U,17589,999,2355,.19605894E-3,.319E-5,0
SL-16 R/B,1987-027B,2026-06-11T13:39:55.299456,14.17172631,.00062923,71.0034,78.6667,318.9496,41.1154,0,U,17590,999,2864,.5945637E-5,-.36E-6,0
SL-14 R/B,1987-038B,2026-06-11T14:31:33.367584,14.85442014,.00184054,82.5012,208.3301,210.1729,149.8429,0,U,17912,999,9317,.33493558E-4,.314E-5,0
COSMOS 1844,1987-041A,2026-06-11T12:29:50.645184,14.14569188,.00331511,70.8977,196.2601,243.7540,116.0173,0,U,17973,999,1685,-.62287135E-4,-.169E-5,0
SL-14 R/B,1987-055B,2026-06-11T13:34:41.214720,14.85707287,.00219976,82.4996,260.5280,65.1916,295.1585,0,U,18153,999,8387,.38749522E-4,.362E-5,0
COSMOS 1867,1987-060A,2026-06-11T09:42:39.962016,14.31515147,.00164102,65.0116,44.2533,282.1424,77.7822,0,U,18187,999,3335,.12764503E-4,-.66E-6,0
SL-14 R/B,1988-001B,2026-06-11T13:37:00.532128,14.85605616,.00165402,82.5129,107.0604,289.8975,70.0458,0,U,18749,999,5596,.40137607E-4,.372E-5,0
COSMOS 1933,1988-020A,2026-06-11T12:04:12.935136,15.18677989,.00028803,82.5116,158.0641,208.9825,151.1250,0,U,18958,999,6446,.13598528E-3,.2849E-4,0
SL-3 R/B,1988-032B,2026-06-11T14:01:55.488864,15.20798487,.00236282,97.5249,145.6309,266.0456,93.8078,0,U,19046,999,6637,.16990797E-3,.37E-4,0
SL-16 R/B,1988-039B,2026-06-11T14:59:43.608192,14.19629562,.00225683,71.0143,229.9198,201.3504,158.6682,0,U,19120,999,97171,-.13906585E-4,-.78E-6,0
COSMOS 1953,1988-050A,2026-06-11T11:01:31.234656,15.29896295,.00117176,82.5084,63.8096,143.9760,216.2272,0,U,19210,999,5211,.22873673E-3,.6666E-4,0
SL-8 R/B,1988-053B,2026-06-11T14:03:35.159040,14.38965391,.00191741,74.0479,299.3825,96.7902,339.8024,0,U,19257,999,99010,.58898812E-4,.156E-5,0
COSMOS 1975,1988-093A,2026-06-11T14:13:23.135232,15.29255676,.00107321,82.5202,23.3300,191.1160,168.9844,0,U,19573,999,3375,.22804641E-3,.6514E-4,0
SL-14 R/B,1988-093B,2026-06-11T11:31:32.689344,14.85737359,.00221931,82.5306,314.0029,88.0375,330.3322,0,U,19574,999,1494,.39502061E-4,.369E-5,0
SL-16 R/B,1988-102B,2026-06-11T13:35:37.120704,14.16165995,.00160144,71.0004,313.9662,233.3195,126.6457,0,U,19650,999,94018,-.82827854E-4,-.212E-5,0
INTERCOSMOS 24,1989-080A,2026-06-11T14:46:40.214208,12.59652890,.11884035,82.6071,43.2699,74.8214,298.0977,0,U,20261,999,67862,.23130938E-3,.817E-5,0
SL-14 R/B,1989-080C,2026-06-11T13:30:04.719168,12.50567357,.12290542,82.5925,112.9210,330.2731,23.3619,0,U,20262,999,67188,.99290488E-4,.333E-5,0
DELTA 1 R/B,1989-089B,2026-06-11T13:31:25.077216,14.50727638,.00687402,97.0638,355.0216,184.7105,175.3454,0,U,20323,999,90934,.8082117E-4,.292E-5,0
ARIANE 40 R/B,1990-005H,2026-06-11T03:18:58.847904,14.39924236,.00088272,98.2960,219.9420,285.2745,74.7467,0,U,20443,999,90625,.75942456E-4,.197E-5,0
DELTA 2 R/B(1),1990-008B,2026-06-11T14:08:18.644352,15.67947352,.00661397,35.6002,273.0862,61.0477,299.6874,0,U,20453,999,94082,.62950917E-3,.82334E-3,0
